[{"OBJECT_NAME":"DIWATA-2B","OBJECT_ID":"2018-084H","EPOCH":"2026-03-09T23:44:16.821312","MEAN_MOTION":14.99967379,"ECCENTRICITY":0.00117782,"INCLINATION":98.1039,"RA_OF_ASC_NODE":261.0381,"ARG_OF_PERICENTER":125.8755,"MEAN_ANOMALY":234.3563,"EPHEMERIS_TYPE":0,"CLASSIFICATION_TYPE":"U","NORAD_CAT_ID":43678,"ELEMENT_SET_NO":999,"REV_AT_EPOCH":40134,"BSTAR":0.00041230334,"MEAN_MOTION_DOT":5.066e-5,"MEAN_MOTION_DDOT":0},{"OBJECT_NAME":"STARLINK-34608","OBJECT_ID":"2025-150W","EPOCH":"2026-03-09T13:59:09.467808","MEAN_MOTION":14.98326574,"ECCENTRICITY":0.0003269,"INCLINATION":70.002,"RA_OF_ASC_NODE":134.6149,"ARG_OF_PERICENTER":266.7801,"MEAN_ANOMALY":93.2984,"EPHEMERIS_TYPE":0,"CLASSIFICATION_TYPE":"U","NORAD_CAT_ID":64810,"ELEMENT_SET_NO":999,"REV_AT_EPOCH":3650,"BSTAR":0.0002357,"MEAN_MOTION_DOT":2.72e-5,"MEAN_MOTION_DDOT":0}]
